FORMOSAT 7-3            
1 44343U 19036E   26157.60937568  .00005509  00000+0  31176-3 0  9991
2 44343  23.9989 251.3431 0001084 126.3590 233.7014 15.09729878381646
FORMOSAT 7-1            
1 44349U 19036L   26157.51172597  .00003046  00000+0  23595-3 0  9990
2 44349  23.9975 104.3593 0001025  67.8269 292.2340 14.96459708383056
FORMOSAT 7-4            
1 44350U 19036M   26157.33411766  .00002863  00000+0  22025-3 0  9999
2 44350  23.9967 167.6659 0001470  74.4441 285.6222 14.96454259382447
FORMOSAT 7-2            
1 44351U 19036N   26157.82323203  .00002676  00000+0  20414-3 0  9994
2 44351  23.9976 218.6866 0001010  74.0764 285.9848 14.96459569382030
FORMOSAT 7-6            
1 44353U 19036Q   26157.35630384  .00003162  00000+0  24588-3 0  9992
2 44353  23.9989  42.6443 0000925 347.3702  12.6776 14.96463061380196
FORMOSAT 7-5            
1 44358U 19036V   26157.80036749  .00003263  00000+0  25453-3 0  9996
2 44358  24.0004 338.4034 0000635  70.6887 289.3682 14.96473080380798
METEOR-M2 2             
1 44387U 19038A   26157.84823144  .00000166  00000+0  91546-4 0  9993
2 44387  98.9147 144.9816 0002337  63.5182 296.6236 14.24363559359822
GLOBAL-4                
1 44499U 19054E   26157.79420691  .00058897  00000+0  62207-3 0  9994
2 44499  45.0070 296.3278 0006485 277.1412  82.8747 15.63403311378733
ZY-1 02D                
1 44528U 19059A   26157.89247522  .00000107  00000+0  51965-4 0  9994
2 44528  98.3186 219.7416 0002107 120.9800 239.1593 14.35456594352862
TAURUS-1 (JINNIUZUO 1)  
1 44530U 19059C   26157.84290286  .00007821  00000+0  12535-2 0  9995
2 44530  98.6419 322.0306 0007981 352.6139   7.4948 14.71990269357123
ZHUHAI-1 03B            
1 44536U 19060C   26157.81490065  .00034597  00000+0  54407-3 0  9992
2 44536  97.5524 315.0258 0007982   0.8269 359.2995 15.53511992374716
ZHUHAI-1 03D            
1 44538U 19060E   26157.82627443  .00037202  00000+0  68246-3 0  9999
2 44538  97.5386 307.2502 0006966 343.9557  16.1472 15.49166326374475
ZHUHAI-1 03E            
1 44539U 19060F   26157.85328866  .00020294  00000+0  49764-3 0  9997
2 44539  97.5606 307.4457 0006667  67.0264 293.1684 15.40731708374171
GAOFEN-7                
1 44703U 19072A   26157.87376679  .00004601  00000+0  20644-3 0  9990
2 44703  97.2429 219.7274 0018103  74.2541 286.0690 15.21522562366075
JILIN-1 GAOFEN 2A       
1 44777U 19075A   26157.86322433  .00016194  00000+0  42030-3 0  9995
2 44777  97.4960 241.4144 0007622 117.2812 242.9211 15.39036998363292
NINGXIA-1 1             
1 44779U 19076A   26157.70667759 -.00000104  00000+0  16815-4 0  9992
2 44779  45.0046 226.6884 0010163 111.2092 248.9829 14.02037336336389
NINGXIA-1 5             
1 44783U 19076E   26157.72032723 -.00000201  00000+0 -46303-4 0  9990
2 44783  45.0046 225.9727 0009829  99.9541 260.2403 14.02085016336305
KL-ALPHA A              
1 44785U 19077A   26157.86367843 -.00000019  00000+0 -45416-4 0  9993
2 44785  88.9254 223.6930 0012693 131.6043 228.6201 13.56041994324338
CARTOSAT-3              
1 44804U 19081A   26157.81664500  .00004110  00000+0  19816-3 0  9993
2 44804  97.4309 219.8500 0012220 182.4020 177.7158 15.19205815361893
JILIN-1 GAOFEN 2B       
1 44836U 19086A   26157.81613648  .00007438  00000+0  34165-3 0  9990
2 44836  97.4878 229.8729 0013810   2.5128 357.6174 15.20596785358917
TIANQIN 1 (CAS-6)       
1 44879U 19093A   26157.85162513  .00002961  00000+0  27302-3 0  9990
2 44879  97.7802 241.7669 0012972  88.7167 271.5539 14.95386360350500
ETRSS-1                 
1 44880U 19093B   26157.86139556  .00003707  00000+0  33672-3 0  9990
2 44880  97.7825 242.2269 0013165  88.5998 271.6731 14.95814792350515
TIANYAN 01              
1 44881U 19093C   26157.81317560  .00000637  00000+0  77918-4 0  9990
2 44881  97.7528 230.2975 0014786 117.8632 242.4084 14.86500407349877
TIANYAN 02              
1 44882U 19093D   26157.81521815  .00009073  00000+0  64038-3 0  9992
2 44882  97.7920 252.5068 0014505  61.7475 298.5213 15.05097508351059
CBERS 4A                
1 44883U 19093E   26157.82421758  .00001473  00000+0  19383-3 0  9998
2 44883  97.7496 225.3918 0001266 154.8408 205.2868 14.81622490349549
WEILAI 1R               
1 44884U 19093F   26157.85234252  .00005600  00000+0  44712-3 0  9993
2 44884  97.7843 247.7240 0017857  66.9980 293.3125 15.00556201350873
FLORIPASAT-1            
1 44885U 19093G   26157.31310279  .00007388  00000+0  54134-3 0  9993
2 44885  97.7924 251.4661 0013751 104.7159 255.5592 15.03766890351016
SHUNTIAN                
1 44886U 19093H   26157.83468979  .00002402  00000+0  22410-3 0  9996
2 44886  97.7999 246.0485 0012963  98.8808 261.3880 14.95103670350634
