OBJECT_NAME,OBJECT_ID,EPOCH,MEAN_MOTION,ECCENTRICITY,INCLINATION,RA_OF_ASC_NODE,ARG_OF_PERICENTER,MEAN_ANOMALY,EPHEMERIS_TYPE,CLASSIFICATION_TYPE,NORAD_CAT_ID,ELEMENT_SET_NO,REV_AT_EPOCH,BSTAR,MEAN_MOTION_DOT,MEAN_MOTION_DDOT
FORMOSAT 7-3,2019-036E,2026-06-06T14:37:30.058752,15.09729878,.0001084,23.9989,251.3431,126.3590,233.7014,0,U,44343,999,38164,.31176E-3,.5509E-4,0
FORMOSAT 7-1,2019-036L,2026-06-06T12:16:53.123808,14.96459708,.0001025,23.9975,104.3593,67.8269,292.2340,0,U,44349,999,38305,.23595E-3,.3046E-4,0
FORMOSAT 7-4,2019-036M,2026-06-06T08:01:07.765824,14.96454259,.00014702,23.9967,167.6659,74.4441,285.6222,0,U,44350,999,38244,.22024807E-3,.2863E-4,0
FORMOSAT 7-2,2019-036N,2026-06-06T19:45:27.247392,14.96459569,.000101,23.9976,218.6866,74.0764,285.9848,0,U,44351,999,38203,.20414E-3,.2676E-4,0
FORMOSAT 7-6,2019-036Q,2026-06-06T08:33:04.651776,14.96463061,.00009257,23.9989,42.6443,347.3702,12.6776,0,U,44353,999,38019,.24588224E-3,.3162E-4,0
FORMOSAT 7-5,2019-036V,2026-06-06T19:12:31.751136,14.96473080,.0000635,24.0004,338.4034,70.6887,289.3682,0,U,44358,999,38079,.25453E-3,.3263E-4,0
METEOR-M2 2,2019-038A,2026-06-06T20:21:27.196416,14.24363559,.0002337,98.9147,144.9816,63.5182,296.6236,0,U,44387,999,35982,.91546E-4,.166E-5,0
GLOBAL-4,2019-054E,2026-06-06T19:03:39.477024,15.63403311,.0006485,45.0070,296.3278,277.1412,82.8747,0,U,44499,999,37873,.62207E-3,.58897E-3,0
ZY-1 02D,2019-059A,2026-06-06T21:25:09.859008,14.35456594,.0002107,98.3186,219.7416,120.9800,239.1593,0,U,44528,999,35286,.51965E-4,.107E-5,0
TAURUS-1 (JINNIUZUO 1),2019-059C,2026-06-06T20:13:46.807104,14.71990269,.0007981,98.6419,322.0306,352.6139,7.4948,0,U,44530,999,35712,.12535E-2,.7821E-4,0
ZHUHAI-1 03B,2019-060C,2026-06-06T19:33:27.416160,15.53511992,.0007982,97.5524,315.0258,0.8269,359.2995,0,U,44536,999,37471,.54407E-3,.34597E-3,0
ZHUHAI-1 03D,2019-060E,2026-06-06T19:49:50.110752,15.49166326,.0006966,97.5386,307.2502,343.9557,16.1472,0,U,44538,999,37447,.68246E-3,.37202E-3,0
ZHUHAI-1 03E,2019-060F,2026-06-06T20:28:44.140224,15.40731708,.0006667,97.5606,307.4457,67.0264,293.1684,0,U,44539,999,37417,.49764E-3,.20294E-3,0
GAOFEN-7,2019-072A,2026-06-06T20:58:13.450656,15.21522562,.0018103,97.2429,219.7274,74.2541,286.0690,0,U,44703,999,36607,.20644E-3,.4601E-4,0
JILIN-1 GAOFEN 2A,2019-075A,2026-06-06T20:43:02.582112,15.39036998,.0007622,97.4960,241.4144,117.2812,242.9211,0,U,44777,999,36329,.4203E-3,.16194E-3,0
NINGXIA-1 1,2019-076A,2026-06-06T16:57:36.943776,14.02037336,.0010163,45.0046,226.6884,111.2092,248.9829,0,U,44779,999,33638,.16815E-4,-.104E-5,0
NINGXIA-1 5,2019-076E,2026-06-06T17:17:16.272672,14.02085016,.0009829,45.0046,225.9727,99.9541,260.2403,0,U,44783,999,33630,-.46303E-4,-.201E-5,0
KL-ALPHA A,2019-077A,2026-06-06T20:43:41.816352,13.56041994,.0012693,88.9254,223.6930,131.6043,228.6201,0,U,44785,999,32433,-.45416E-4,-.19E-6,0
CARTOSAT-3,2019-081A,2026-06-06T19:35:58.128000,15.19205815,.001222,97.4309,219.8500,182.4020,177.7158,0,U,44804,999,36189,.19816E-3,.411E-4,0
JILIN-1 GAOFEN 2B,2019-086A,2026-06-06T19:35:14.191872,15.20596785,.001381,97.4878,229.8729,2.5128,357.6174,0,U,44836,999,35891,.34165E-3,.7438E-4,0
TIANQIN 1 (CAS-6),2019-093A,2026-06-06T20:26:20.411232,14.95386360,.0012972,97.7802,241.7669,88.7167,271.5539,0,U,44879,999,35050,.27302E-3,.2961E-4,0
ETRSS-1,2019-093B,2026-06-06T20:40:24.576384,14.95814792,.0013165,97.7825,242.2269,88.5998,271.6731,0,U,44880,999,35051,.33672E-3,.3707E-4,0
TIANYAN 01,2019-093C,2026-06-06T19:30:58.371840,14.86500407,.0014786,97.7528,230.2975,117.8632,242.4084,0,U,44881,999,34987,.77918E-4,.637E-5,0
TIANYAN 02,2019-093D,2026-06-06T19:33:54.848160,15.05097508,.0014505,97.7920,252.5068,61.7475,298.5213,0,U,44882,999,35105,.64038E-3,.9073E-4,0
CBERS 4A,2019-093E,2026-06-06T19:46:52.398912,14.81622490,.0001266,97.7496,225.3918,154.8408,205.2868,0,U,44883,999,34954,.19383E-3,.1473E-4,0
WEILAI 1R,2019-093F,2026-06-06T20:27:22.393728,15.00556201,.0017857,97.7843,247.7240,66.9980,293.3125,0,U,44884,999,35087,.44712E-3,.56E-4,0
FLORIPASAT-1,2019-093G,2026-06-06T07:30:52.081056,15.03766890,.00137514,97.7924,251.4661,104.7159,255.5592,0,U,44885,999,35101,.54133508E-3,.7388E-4,0
SHUNTIAN,2019-093H,2026-06-06T20:01:57.197856,14.95103670,.0012963,97.7999,246.0485,98.8808,261.3880,0,U,44886,999,35063,.2241E-3,.2402E-4,0
